NORAD_CAT_ID,OBJECT_NAME,OBJECT_TYPE,EPOCH,MEAN_MOTION,ECCENTRICITY,INCLINATION,RA_OF_ASC_NODE,ARG_OF_PERICENTER,MEAN_ANOMALY,BSTAR,MEAN_MOTION_DOT,MEAN_MOTION_DDOT,TLE_LINE0,TLE_LINE1,TLE_LINE2,SEMIMAJOR_AXIS,PERIOD,APOGEE,PERIGEE,DECAYED
53910.0,STARLINK-5056,PAYLOAD,2023-02-22 01:07:12,15.08853996,0.000116,53.2159,264.5418,80.8575,279.2548,0.00042125,6.425e-05,0.0,0 STARLINK-5056,1 53910U 22119AA  23053.04666976  .00006425  00000-0  42125-3 0  9994,2 53910  53.2159 264.5418 0001160  80.8575 279.2548 15.08853996 24003,6917.838,95.437,540.505,538.9,0.0
53910.0,STARLINK-5056,PAYLOAD,2023-02-22 20:11:50,15.08842681,9.87e-05,53.216,260.973,85.0033,275.1072,0.00020729,3.013e-05,0.0,0 STARLINK-5056,1 53910U 22119AA  23053.84155467  .00003013  00000-0  20729-3 0  9996,2 53910  53.2160 260.9730 0000987  85.0033 275.1072 15.08842681 23706,6917.872,95.437,540.42,539.054,0.0
53910.0,STARLINK-5056,PAYLOAD,2023-02-23 00:57:59,15.08845958,9.17e-05,53.2159,260.0805,81.9297,278.1799,0.00046232,7.079e-05,0.0,0 STARLINK-5056,1 53910U 22119AA  23054.04027363  .00007079  00000-0  46232-3 0  9995,2 53910  53.2159 260.0805 0000917  81.9297 278.1799 15.08845958 24157,6917.862,95.437,540.362,539.093,0.0
53910.0,STARLINK-5056,PAYLOAD,2023-02-23 20:02:37,15.08850496,0.0001037,53.2163,256.5119,83.4451,276.6659,0.00049475,7.597e-05,0.0,0 STARLINK-5056,1 53910U 22119AA  23054.83515298  .00007597  00000-0  49475-3 0  9998,2 53910  53.2163 256.5119 0001037  83.4451 276.6659 15.08850496 24277,6917.848,95.437,540.431,538.996,0.0
53910.0,STARLINK-5056,PAYLOAD,2023-02-23 23:13:23,15.08854889,0.0001129,53.2163,255.9175,85.0828,275.0293,0.00060448,9.349e-05,0.0,0 STARLINK-5056,1 53910U 22119AA  23054.96763177  .00009349  00000-0  60448-3 0  9993,2 53910  53.2163 255.9175 0001129  85.0828 275.0293 15.08854889 23872,6917.835,95.437,540.481,538.919,0.0
53910.0,STARLINK-5056,PAYLOAD,2023-02-24 19:53:24,15.08841798,0.0001084,53.2166,252.0515,90.7583,269.3533,0.00014458,2.014e-05,0.0,0 STARLINK-5056,1 53910U 22119AA  23055.82875460  .00002014  00000-0  14458-3 0  9990,2 53910  53.2166 252.0515 0001084  90.7583 269.3533 15.08841798 24006,6917.875,95.437,540.49,538.99,0.0
53910.0,STARLINK-5056,PAYLOAD,2023-02-25 13:22:39,15.08833282,0.0001128,53.2164,248.7803,91.6917,268.4204,2.8775e-05,1.7e-06,0.0,0 STARLINK-5056,1 53910U 22119AA  23056.55739926  .00000170  00000-0  28775-4 0  9996,2 53910  53.2164 248.7803 0001128  91.6917 268.4204 15.08833282 24538,6917.901,95.438,540.546,538.986,0.0
53910.0,STARLINK-5056,PAYLOAD,2023-02-25 19:44:11,15.08838742,0.0001135,53.2161,247.5914,90.7705,269.3417,6.905e-05,8.11e-06,0.0,0 STARLINK-5056,1 53910U 22119AA  23056.82235872  .00000811  00000-0  69050-4 0  9990,2 53910  53.2161 247.5914 0001135  90.7705 269.3417 15.08838742 24158,6917.884,95.438,540.534,538.964,0.0
53910.0,STARLINK-5056,PAYLOAD,2023-02-25 21:19:34,15.08840026,0.0001092,53.2161,247.2939,90.2629,269.8488,0.00011032,1.468e-05,0.0,0 STARLINK-5056,1 53910U 22119AA  23056.88859870  .00001468  00000-0  11032-3 0  9991,2 53910  53.2161 247.2939 0001092  90.2629 269.8488 15.08840026 24582,6917.88,95.438,540.501,538.99,0.0
53910.0,STARLINK-5056,PAYLOAD,2023-02-26 13:13:26,15.08847057,0.000107,53.2162,244.3201,90.4456,269.6658,0.00030842,4.625e-05,0.0,0 STARLINK-5056,1 53910U 22119AA  23057.55099721  .00004625  00000-0  30842-3 0  9995,2 53910  53.2162 244.3201 0001070  90.4456 269.6658 15.08847057 24688,6917.859,95.437,540.464,538.984,0.0
53910.0,STARLINK-5056,PAYLOAD,2023-02-26 19:34:58,15.08854298,0.0001086,53.216,243.131,91.773,268.3387,0.00041596,6.341e-05,0.0,0 STARLINK-5056,1 53910U 22119AA  23057.81595384  .00006341  00000-0  41596-3 0  9995,2 53910  53.2160 243.1310 0001086  91.7730 268.3387 15.08854298 24309,6917.837,95.437,540.453,538.95,0.0
53910.0,STARLINK-5056,PAYLOAD,2023-02-27 05:07:17,15.08850984,0.0001265,53.2154,241.3462,90.3753,269.7384,0.00028649,4.276e-05,0.0,0 STARLINK-5056,1 53910U 22119AA  23058.21339331  .00004276  00000-0  28649-3 0  9997,2 53910  53.2154 241.3462 0001265  90.3753 269.7384 15.08850984 24365,6917.847,95.437,540.587,538.837,0.0
53910.0,STARLINK-5056,PAYLOAD,2023-02-27 17:50:22,15.08849737,0.0001028,53.2161,238.9671,92.9836,267.1274,0.00027868,4.151e-05,0.0,0 STARLINK-5056,1 53910U 22119AA  23058.74331328  .00004151  00000-0  27868-3 0  9997,2 53910  53.2161 238.9671 0001028  92.9836 267.1274 15.08849737 24447,6917.851,95.437,540.427,539.004,0.0
53910.0,STARLINK-5056,PAYLOAD,2023-02-27 19:25:45,15.08843028,0.0001054,53.2156,238.6701,95.3868,264.7245,7.9741e-05,9.82e-06,0.0,0 STARLINK-5056,1 53910U 22119AA  23058.80955489  .00000982  00000-0  79741-4 0  9990,2 53910  53.2156 238.6701 0001054  95.3868 264.7245 15.08843028 24878,6917.871,95.437,540.465,539.007,0.0
53910.0,STARLINK-5056,PAYLOAD,2023-02-28 11:19:37,15.08838441,0.0001681,53.215,235.6967,79.3371,280.7811,0.00061874,9.573e-05,0.0,0 STARLINK-5056,1 53910U 22119AA  23059.47196027  .00009573  00000-0  61874-3 0  9991,2 53910  53.2150 235.6967 0001681  79.3371 280.7811 15.08838441 24555,6917.885,95.438,540.913,538.587,0.0
53910.0,STARLINK-5056,PAYLOAD,2023-02-28 19:16:33,15.08825846,0.0001301,53.2157,234.2099,89.6178,270.4963,-5.8864e-05,-1.224e-05,0.0,0 STARLINK-5056,1 53910U 22119AA  23059.80316476 -.00001224  00000-0 -58864-4 0  9993,2 53910  53.2157 234.2099 0001301  89.6178 270.4963 15.08825846 24606,6917.924,95.438,540.689,538.889,0.0
53910.0,STARLINK-5056,PAYLOAD,2023-02-28 20:51:56,15.08830501,0.0001264,53.2166,233.9127,88.3398,271.7739,-9.7415e-05,-1.837e-05,0.0,0 STARLINK-5056,1 53910U 22119AA  23059.86940461 -.00001837  00000-0 -97415-4 0  9991,2 53910  53.2166 233.9127 0001264  88.3398 271.7739 15.08830501 25039,6917.909,95.438,540.649,538.9,0.0
53910.0,STARLINK-5056,PAYLOAD,2023-03-01 04:48:52,15.08837484,0.0001149,53.2157,232.4258,83.678,276.4343,0.00012639,1.724e-05,0.0,0 STARLINK-5056,1 53910U 22119AA  23060.20060411  .00001724  00000-0  12639-3 0  9996,2 53910  53.2157 232.4258 0001149  83.6780 276.4343 15.08837484 24661,6917.888,95.438,540.548,538.958,0.0
53910.0,STARLINK-5056,PAYLOAD,2023-03-01 20:42:43,15.08849878,0.0001181,53.2159,229.4521,82.6211,277.4915,0.00044747,6.843e-05,0.0,0 STARLINK-5056,1 53910U 22119AA  23060.86300136  .00006843  00000-0  44747-3 0  9991,2 53910  53.2159 229.4521 0001181  82.6211 277.4915 15.08849878 25180,6917.85,95.437,540.532,538.898,0.0
53910.0,STARLINK-5056,PAYLOAD,2023-03-01 22:18:06,15.08854152,0.0001196,53.2158,229.155,81.2937,278.819,0.00056145,8.662e-05,0.0,0 STARLINK-5056,1 53910U 22119AA  23060.92924060  .00008662  00000-0  56145-3 0  9992,2 53910  53.2158 229.1550 0001196  81.2937 278.8190 15.08854152 24779,6917.837,95.437,540.53,538.875,0.0
53910.0,STARLINK-5056,PAYLOAD,2023-03-02 18:58:07,15.0884483,0.000122,53.2166,225.2898,88.9403,271.1729,0.00024025,3.538e-05,0.0,0 STARLINK-5056,1 53910U 22119AA  23061.79036296  .00003538  00000-0  24025-3 0  9992,2 53910  53.2166 225.2898 0001220  88.9403 271.1729 15.08844830 24901,6917.866,95.437,540.575,538.887,0.0
53910.0,STARLINK-5056,PAYLOAD,2023-03-03 12:27:21,15.08847235,0.0001298,53.2173,222.0192,88.7171,271.397,0.00018475,2.654e-05,0.0,0 STARLINK-5056,1 53910U 22119AA  23062.51900064  .00002654  00000-0  18475-3 0  9996,2 53910  53.2173 222.0192 0001298  88.7171 271.3970 15.08847235 25437,6917.858,95.437,540.621,538.825,0.0
53910.0,STARLINK-5056,PAYLOAD,2023-03-03 20:24:16,15.0886856,0.0001292,53.2166,220.5323,89.4533,270.6607,0.00068395,0.00010622,0.0,0 STARLINK-5056,1 53910U 22119AA  23062.85019380  .00010622  00000-0  68395-3 0  9995,2 53910  53.2166 220.5323 0001292  89.4533 270.6607 15.08868560 25480,6917.793,95.436,540.552,538.764,0.0
53910.0,STARLINK-5056,PAYLOAD,2023-03-03 21:59:39,15.08874038,0.0001002,53.2165,220.2346,98.1489,261.9617,0.0011464,0.00018021,0.0,0 STARLINK-5056,1 53910U 22119AA  23062.91643306  .00018021  00000-0  11464-2 0  9998,2 53910  53.2165 220.2346 0001002  98.1489 261.9617 15.08874038 25073,6917.776,95.435,540.335,538.948,0.0
53910.0,STARLINK-5056,PAYLOAD,2023-03-04 10:42:45,15.08843489,0.0001137,53.2168,217.8558,102.3074,257.8045,0.00028076,4.184e-05,0.0,0 STARLINK-5056,1 53910U 22119AA  23063.44635881  .00004184  00000-0  28076-3 0  9999,2 53910  53.2168 217.8558 0001137 102.3074 257.8045 15.08843489 25154,6917.87,95.437,540.521,538.948,0.0
53910.0,STARLINK-5056,PAYLOAD,2023-03-04 12:18:08,15.08847709,0.0001175,53.2167,217.5582,104.7176,255.3946,0.000519,7.983e-05,0.0,0 STARLINK-5056,1 53910U 22119AA  23063.51259823  .00007983  00000-0  51900-3 0  9997,2 53910  53.2167 217.5582 0001175 104.7176 255.3946 15.08847709 25587,6917.857,95.437,540.535,538.909,0.0
53910.0,STARLINK-5056,PAYLOAD,2023-03-04 18:39:41,15.08859397,7.47e-05,53.2166,216.3696,81.5914,278.5163,0.0020719,0.00032858,0.0,0 STARLINK-5056,1 53910U 22119AA  23063.77755795  .00032858  00000-0  20719-2 0  9996,2 53910  53.2166 216.3696 0000747  81.5914 278.5163 15.08859397 25208,6917.821,95.436,540.203,539.169,0.0
53910.0,STARLINK-5056,PAYLOAD,2023-03-04 20:15:04,15.08861533,7.33e-05,53.2165,216.0717,85.9192,274.1883,0.0020711,0.00032847,0.0,0 STARLINK-5056,1 53910U 22119AA  23063.84379701  .00032847  00000-0  20711-2 0  9993,2 53910  53.2165 216.0717 0000733  85.9192 274.1883 15.08861533 25632,6917.815,95.436,540.187,539.172,0.0
53910.0,STARLINK-5056,PAYLOAD,2023-03-05 10:33:33,15.08832228,9.77e-05,53.2167,213.3954,101.8902,258.2199,0.0010542,0.00016526,0.0,0 STARLINK-5056,1 53910U 22119AA  23064.43996771  .00016526  00000-0  10542-2 0  9998,2 53910  53.2167 213.3954 0000977 101.8902 258.2199 15.08832228 25300,6917.904,95.438,540.445,539.093,0.0
53910.0,STARLINK-5056,PAYLOAD,2023-03-05 16:55:05,15.08840631,0.0001177,53.2168,212.2061,115.4496,244.6618,0.0017691,0.0002798,0.0,0 STARLINK-5056,1 53910U 22119AA  23064.70492845  .00027980  00000-0  17691-2 0  9999,2 53910  53.2168 212.2061 0001177 115.4496 244.6618 15.08840631 25762,6917.878,95.438,540.558,538.929,0.0
